[{"OBJECT_NAME":"STARLINK-4578","OBJECT_ID":"2022-125B","EPOCH":"2026-03-10T00:00:02.999808","MEAN_MOTION":15.62568456,"ECCENTRICITY":0.00020465,"INCLINATION":53.2173,"RA_OF_ASC_NODE":215.6942,"ARG_OF_PERICENTER":23.1029,"MEAN_ANOMALY":169.28,"EPHEMERIS_TYPE":0,"CLASSIFICATION_TYPE":"U","NORAD_CAT_ID":53965,"ELEMENT_SET_NO":999,"REV_AT_EPOCH":584,"BSTAR":0.010109163,"MEAN_MOTION_DOT":0.01005123,"MEAN_MOTION_DDOT":0},{"OBJECT_NAME":"STARLINK-11448 [DTC]","OBJECT_ID":"2025-032A","EPOCH":"2026-03-08T18:32:51.470016","MEAN_MOTION":15.70875338,"ECCENTRICITY":0.00017546,"INCLINATION":43.0007,"RA_OF_ASC_NODE":200.5078,"ARG_OF_PERICENTER":264.2041,"MEAN_ANOMALY":95.8626,"EPHEMERIS_TYPE":0,"CLASSIFICATION_TYPE":"U","NORAD_CAT_ID":63005,"ELEMENT_SET_NO":999,"REV_AT_EPOCH":6208,"BSTAR":0.0017834117,"MEAN_MOTION_DOT":0.00235334,"MEAN_MOTION_DDOT":0}]
